[{"OBJECT_NAME":"DUPLEX","OBJECT_ID":"1998-067XS","EPOCH":"2026-03-17T22:23:01.448160","MEAN_MOTION":15.5675275,"ECCENTRICITY":0.00029165,"INCLINATION":51.63,"RA_OF_ASC_NODE":28.2024,"ARG_OF_PERICENTER":147.7236,"MEAN_ANOMALY":212.3935,"EPHEMERIS_TYPE":0,"CLASSIFICATION_TYPE":"U","NORAD_CAT_ID":66906,"ELEMENT_SET_NO":999,"REV_AT_EPOCH":1641,"BSTAR":0.00033548582,"MEAN_MOTION_DOT":0.00024045,"MEAN_MOTION_DDOT":0},{"OBJECT_NAME":"ISS OBJECT XT","OBJECT_ID":"1998-067XT","EPOCH":"2026-03-18T13:16:41.346048","MEAN_MOTION":15.72233984,"ECCENTRICITY":0.00050616,"INCLINATION":51.6257,"RA_OF_ASC_NODE":20.324,"ARG_OF_PERICENTER":138.0856,"MEAN_ANOMALY":222.053,"EPHEMERIS_TYPE":0,"CLASSIFICATION_TYPE":"U","NORAD_CAT_ID":66907,"ELEMENT_SET_NO":999,"REV_AT_EPOCH":1657,"BSTAR":0.0010885859,"MEAN_MOTION_DOT":0.00148965,"MEAN_MOTION_DDOT":0},{"OBJECT_NAME":"ISS OBJECT XU","OBJECT_ID":"1998-067XU","EPOCH":"2026-03-18T13:12:59.221152","MEAN_MOTION":15.72373392,"ECCENTRICITY":0.00052647,"INCLINATION":51.6252,"RA_OF_ASC_NODE":20.3027,"ARG_OF_PERICENTER":139.027,"MEAN_ANOMALY":221.1124,"EPHEMERIS_TYPE":0,"CLASSIFICATION_TYPE":"U","NORAD_CAT_ID":66908,"ELEMENT_SET_NO":999,"REV_AT_EPOCH":1657,"BSTAR":0.0010696038,"MEAN_MOTION_DOT":0.00147205,"MEAN_MOTION_DDOT":0},{"OBJECT_NAME":"SILVERSAT","OBJECT_ID":"1998-067XV","EPOCH":"2026-03-18T02:08:50.555328","MEAN_MOTION":15.75954146,"ECCENTRICITY":0.00056001,"INCLINATION":51.6243,"RA_OF_ASC_NODE":21.7188,"ARG_OF_PERICENTER":137.5324,"MEAN_ANOMALY":222.611,"EPHEMERIS_TYPE":0,"CLASSIFICATION_TYPE":"U","NORAD_CAT_ID":66909,"ELEMENT_SET_NO":999,"REV_AT_EPOCH":1651,"BSTAR":0.0011692677,"MEAN_MOTION_DOT":0.00188918,"MEAN_MOTION_DDOT":0},{"OBJECT_NAME":"ISS OBJECT XW","OBJECT_ID":"1998-067XW","EPOCH":"2026-03-18T13:15:51.018048","MEAN_MOTION":15.71278342,"ECCENTRICITY":0.00056394,"INCLINATION":51.6248,"RA_OF_ASC_NODE":20.3118,"ARG_OF_PERICENTER":140.4189,"MEAN_ANOMALY":219.7221,"EPHEMERIS_TYPE":0,"CLASSIFICATION_TYPE":"U","NORAD_CAT_ID":66910,"ELEMENT_SET_NO":999,"REV_AT_EPOCH":1657,"BSTAR":0.0010166341,"MEAN_MOTION_DOT":0.00133331,"MEAN_MOTION_DDOT":0},{"OBJECT_NAME":"ISS OBJECT XX","OBJECT_ID":"1998-067XX","EPOCH":"2026-03-18T01:36:14.226912","MEAN_MOTION":15.80205228,"ECCENTRICITY":0.00072437,"INCLINATION":51.6212,"RA_OF_ASC_NODE":20.7915,"ARG_OF_PERICENTER":141.9689,"MEAN_ANOMALY":218.1825,"EPHEMERIS_TYPE":0,"CLASSIFICATION_TYPE":"U","NORAD_CAT_ID":66911,"ELEMENT_SET_NO":999,"REV_AT_EPOCH":1651,"BSTAR":0.0012795822,"MEAN_MOTION_DOT":0.00252305,"MEAN_MOTION_DDOT":0},{"OBJECT_NAME":"ISS OBJECT XY","OBJECT_ID":"1998-067XY","EPOCH":"2026-03-18T00:18:43.170624","MEAN_MOTION":15.65332059,"ECCENTRICITY":0.00036282,"INCLINATION":51.6278,"RA_OF_ASC_NODE":24.9814,"ARG_OF_PERICENTER":139.1687,"MEAN_ANOMALY":220.958,"EPHEMERIS_TYPE":0,"CLASSIFICATION_TYPE":"U","NORAD_CAT_ID":66912,"ELEMENT_SET_NO":999,"REV_AT_EPOCH":1645,"BSTAR":0.00077195145,"MEAN_MOTION_DOT":0.00078591,"MEAN_MOTION_DDOT":0},{"OBJECT_NAME":"KNACKSAT-2","OBJECT_ID":"1998-067XZ","EPOCH":"2026-03-18T10:03:33.647616","MEAN_MOTION":15.52544245,"ECCENTRICITY":0.00096895,"INCLINATION":51.6316,"RA_OF_ASC_NODE":28.4495,"ARG_OF_PERICENTER":216.6258,"MEAN_ANOMALY":143.4071,"EPHEMERIS_TYPE":0,"CLASSIFICATION_TYPE":"U","NORAD_CAT_ID":67683,"ELEMENT_SET_NO":999,"REV_AT_EPOCH":614,"BSTAR":0.00048007997,"MEAN_MOTION_DOT":0.00029697,"MEAN_MOTION_DDOT":0},{"OBJECT_NAME":"GXIBA-1","OBJECT_ID":"1998-067YA","EPOCH":"2026-03-18T13:38:37.050432","MEAN_MOTION":15.55774462,"ECCENTRICITY":0.00118489,"INCLINATION":51.6313,"RA_OF_ASC_NODE":27.1981,"ARG_OF_PERICENTER":206.6188,"MEAN_ANOMALY":153.4196,"EPHEMERIS_TYPE":0,"CLASSIFICATION_TYPE":"U","NORAD_CAT_ID":67684,"ELEMENT_SET_NO":999,"REV_AT_EPOCH":617,"BSTAR":0.00095322233,"MEAN_MOTION_DOT":0.00067301,"MEAN_MOTION_DDOT":0},{"OBJECT_NAME":"CORAL","OBJECT_ID":"1998-067YB","EPOCH":"2026-03-18T03:43:14.914272","MEAN_MOTION":15.529653,"ECCENTRICITY":0.00115872,"INCLINATION":51.6324,"RA_OF_ASC_NODE":29.6861,"ARG_OF_PERICENTER":212.5477,"MEAN_ANOMALY":147.48,"EPHEMERIS_TYPE":0,"CLASSIFICATION_TYPE":"U","NORAD_CAT_ID":67685,"ELEMENT_SET_NO":999,"REV_AT_EPOCH":610,"BSTAR":0.000565829,"MEAN_MOTION_DOT":0.00035685,"MEAN_MOTION_DDOT":0},{"OBJECT_NAME":"ISS OBJECT YC","OBJECT_ID":"1998-067YC","EPOCH":"2026-03-18T01:57:44.960832","MEAN_MOTION":15.53669122,"ECCENTRICITY":0.00085421,"INCLINATION":51.6325,"RA_OF_ASC_NODE":29.9492,"ARG_OF_PERICENTER":181.6034,"MEAN_ANOMALY":178.4931,"EPHEMERIS_TYPE":0,"CLASSIFICATION_TYPE":"U","NORAD_CAT_ID":67686,"ELEMENT_SET_NO":999,"REV_AT_EPOCH":609,"BSTAR":0.00066325202,"MEAN_MOTION_DOT":0.0004299,"MEAN_MOTION_DDOT":0},{"OBJECT_NAME":"LEOPARD","OBJECT_ID":"1998-067YD","EPOCH":"2026-03-18T09:58:37.493472","MEAN_MOTION":15.52752222,"ECCENTRICITY":0.00082265,"INCLINATION":51.632,"RA_OF_ASC_NODE":28.4288,"ARG_OF_PERICENTER":186.2844,"MEAN_ANOMALY":173.8044,"EPHEMERIS_TYPE":0,"CLASSIFICATION_TYPE":"U","NORAD_CAT_ID":67687,"ELEMENT_SET_NO":999,"REV_AT_EPOCH":606,"BSTAR":0.00051712517,"MEAN_MOTION_DOT":0.00032262,"MEAN_MOTION_DDOT":0},{"OBJECT_NAME":"ISS OBJECT YE","OBJECT_ID":"1998-067YE","EPOCH":"2026-03-18T03:36:14.572224","MEAN_MOTION":15.53349847,"ECCENTRICITY":0.00083347,"INCLINATION":51.6321,"RA_OF_ASC_NODE":29.6558,"ARG_OF_PERICENTER":182.6297,"MEAN_ANOMALY":177.4651,"EPHEMERIS_TYPE":0,"CLASSIFICATION_TYPE":"U","NORAD_CAT_ID":67688,"ELEMENT_SET_NO":999,"REV_AT_EPOCH":602,"BSTAR":0.0006226299,"MEAN_MOTION_DOT":0.0003984,"MEAN_MOTION_DDOT":0},{"OBJECT_NAME":"CREW DRAGON 12","OBJECT_ID":"2026-031A","EPOCH":"2026-03-18T08:31:19.348320","MEAN_MOTION":15.48355497,"ECCENTRICITY":0.00062405,"INCLINATION":51.634,"RA_OF_ASC_NODE":29.52,"ARG_OF_PERICENTER":204.1942,"MEAN_ANOMALY":155.8754,"EPHEMERIS_TYPE":0,"CLASSIFICATION_TYPE":"U","NORAD_CAT_ID":67796,"ELEMENT_SET_NO":999,"REV_AT_EPOCH":55759,"BSTAR":0.0001519049,"MEAN_MOTION_DOT":7.746e-5,"MEAN_MOTION_DDOT":0}]
